NORAD_CAT_ID,OBJECT_NAME,OBJECT_TYPE,EPOCH,MEAN_MOTION,ECCENTRICITY,INCLINATION,RA_OF_ASC_NODE,ARG_OF_PERICENTER,MEAN_ANOMALY,BSTAR,MEAN_MOTION_DOT,MEAN_MOTION_DDOT,TLE_LINE0,TLE_LINE1,TLE_LINE2,SEMIMAJOR_AXIS,PERIOD,APOGEE,PERIGEE,DECAYED
52096.0,STARLINK-3717,PAYLOAD,2023-02-23 01:31:46,15.08847746,0.0001157,53.218,24.9163,101.3685,258.7438,0.00076801,0.00011959,0.0,0 STARLINK-3717,1 52096U 22029J   23054.06372720  .00011959  00000-0  76801-3 0  9998,2 52096  53.2180  24.9163 0001157 101.3685 258.7438 15.08847746 53113,6917.857,95.437,540.522,538.921,0.0
52096.0,STARLINK-3717,PAYLOAD,2023-02-23 07:53:18,15.08854135,0.0001099,53.2186,23.7278,92.4942,267.6176,0.0017824,0.00028204,0.0,0 STARLINK-3717,1 52096U 22029J   23054.32868804  .00028204  00000-0  17824-2 0  9990,2 52096  53.2186  23.7278 0001099  92.4942 267.6176 15.08854135 53156,6917.837,95.437,540.462,538.942,0.0
52096.0,STARLINK-3717,PAYLOAD,2023-02-24 01:22:33,15.08839918,0.0001122,53.2172,20.4548,89.278,270.8341,1.0085e-05,-1.27e-06,0.0,0 STARLINK-3717,1 52096U 22029J   23055.05732845 -.00000127  00000-0  10085-4 0  9995,2 52096  53.2172  20.4548 0001122  89.2780 270.8341 15.08839918 53260,6917.881,95.438,540.522,538.969,0.0
52096.0,STARLINK-3717,PAYLOAD,2023-02-24 04:33:19,15.08840883,0.0001042,53.218,19.863,80.0045,280.1065,2.2299e-05,6.7e-07,0.0,0 STARLINK-3717,1 52096U 22029J   23055.18980475  .00000067  00000-0  22299-4 0  9995,2 52096  53.2180  19.8630 0001042  80.0045 280.1065 15.08840883 53289,6917.878,95.437,540.464,539.022,0.0
52096.0,STARLINK-3717,PAYLOAD,2023-02-24 22:02:34,15.0883297,9.4e-05,53.2178,16.5899,75.0908,285.0188,-2.8621e-05,-7.43e-06,0.0,0 STARLINK-3717,1 52096U 22029J   23055.91845445 -.00000743  00000-0 -28621-4 0  9991,2 52096  53.2178  16.5899 0000940  75.0908 285.0188 15.08832970 53395,6917.902,95.438,540.417,539.117,0.0
52096.0,STARLINK-3717,PAYLOAD,2023-02-25 04:24:06,15.0883506,9.19e-05,53.2185,15.4033,84.7245,275.3852,-2.6404e-06,-3.3e-06,0.0,0 STARLINK-3717,1 52096U 22029J   23056.18341334 -.00000330  00000-0 -26404-5 0  9999,2 52096  53.2185  15.4033 0000919  84.7245 275.3852 15.08835060 53436,6917.895,95.438,540.396,539.125,0.0
52096.0,STARLINK-3717,PAYLOAD,2023-02-25 07:34:52,15.08840795,0.0001058,53.2179,14.8062,98.8221,261.2891,3.4583e-05,2.63e-06,0.0,0 STARLINK-3717,1 52096U 22029J   23056.31588794  .00000263  00000-0  34583-4 0  9996,2 52096  53.2179  14.8062 0001058  98.8221 261.2891 15.08840795 53459,6917.878,95.438,540.475,539.011,0.0
52096.0,STARLINK-3717,PAYLOAD,2023-02-26 01:04:07,15.08839532,0.0001079,53.2182,11.5357,92.2302,267.8814,-9.4807e-05,-1.796e-05,0.0,0 STARLINK-3717,1 52096U 22029J   23057.04453504 -.00001796  00000-0 -94807-4 0  9996,2 52096  53.2182  11.5357 0001079  92.2302 267.8814 15.08839532 53561,6917.882,95.438,540.493,539.0,0.0
52096.0,STARLINK-3717,PAYLOAD,2023-02-26 07:25:38,15.08857566,0.0001124,53.2179,10.3453,88.213,271.8991,5.6396e-05,6.1e-06,0.0,0 STARLINK-3717,1 52096U 22029J   23057.30947780  .00000610  00000-0  56396-4 0  9992,2 52096  53.2179  10.3453 0001124  88.2130 271.8991 15.08857566 53609,6917.827,95.436,540.469,538.914,0.0
52096.0,STARLINK-3717,PAYLOAD,2023-02-27 05:41:03,15.08839807,0.0001103,53.2181,6.1843,96.3828,263.729,3.2314e-05,2.27e-06,0.0,0 STARLINK-3717,1 52096U 22029J   23058.23684812  .00000227  00000-0  32314-4 0  9997,2 52096  53.2181   6.1843 0001103  96.3828 263.7290 15.08839807 53744,6917.881,95.438,540.509,538.983,0.0
52096.0,STARLINK-3717,PAYLOAD,2023-02-27 19:59:30,15.08851531,0.00013,53.2193,3.5066,78.1099,282.0039,0.00013423,1.85e-05,0.0,0 STARLINK-3717,1 52096U 22029J   23058.83299594  .00001850  00000-0  13423-3 0  9994,2 52096  53.2193   3.5066 0001300  78.1099 282.0039 15.08851531 53835,6917.845,95.437,540.609,538.811,0.0
52096.0,STARLINK-3717,PAYLOAD,2023-02-28 02:21:03,15.08855166,0.0001201,53.219,2.3153,81.2103,278.9025,1.9533e-05,2.3e-07,0.0,0 STARLINK-3717,1 52096U 22029J   23059.09795601  .00000023  00000-0  19533-4 0  9993,2 52096  53.2190   2.3153 0001201  81.2103 278.9025 15.08855166 53878,6917.834,95.437,540.53,538.868,0.0
52096.0,STARLINK-3717,PAYLOAD,2023-02-28 05:31:49,15.08852703,0.000116,53.2192,1.7209,85.3211,274.7914,5.9884e-06,-1.93e-06,0.0,0 STARLINK-3717,1 52096U 22029J   23059.23043670 -.00000193  00000-0  59884-5 0  9994,2 52096  53.2192   1.7209 0001160  85.3211 274.7914 15.08852703 53891,6917.842,95.437,540.509,538.904,0.0
52096.0,STARLINK-3717,PAYLOAD,2023-03-01 02:11:53,15.0882146,0.0001025,53.2194,357.856,93.0948,267.0161,-0.00027438,-4.65e-05,0.0,0 STARLINK-3717,1 52096U 22029J   23060.09159216 -.00004650  00000-0 -27438-3 0  9995,2 52096  53.2194 357.8560 0001025  93.0948 267.0161 15.08821460 54022,6917.937,95.439,540.511,539.093,0.0
52096.0,STARLINK-3717,PAYLOAD,2023-03-01 05:22:39,15.08827618,0.0001202,53.2183,357.2595,105.7471,254.3654,-0.00023747,-4.064e-05,0.0,0 STARLINK-3717,1 52096U 22029J   23060.22406763 -.00004064  00000-0 -23747-3 0  9990,2 52096  53.2183 357.2595 0001202 105.7471 254.3654 15.08827618 54040,6917.918,95.438,540.615,538.952,0.0
52096.0,STARLINK-3717,PAYLOAD,2023-03-02 02:02:36,15.08861075,0.0001018,53.2189,353.3972,84.7629,275.3479,0.00018533,2.665e-05,0.0,0 STARLINK-3717,1 52096U 22029J   23061.08514907  .00002665  00000-0  18533-3 0  9995,2 52096  53.2189 353.3972 0001018  84.7629 275.3479 15.08861075 54175,6917.816,95.436,540.385,538.977,0.0
52096.0,STARLINK-3717,PAYLOAD,2023-03-02 19:31:53,15.08828044,0.0001076,53.219,350.1268,92.7599,267.3516,5.2079e-05,5.41e-06,0.0,0 STARLINK-3717,1 52096U 22029J   23061.81381863  .00000541  00000-0  52079-4 0  9994,2 52096  53.2190 350.1268 0001076  92.7599 267.3516 15.08828044 54283,6917.917,95.438,540.526,539.038,0.0
52096.0,STARLINK-3717,PAYLOAD,2023-03-03 05:04:12,15.08835849,0.0001051,53.2183,348.3394,101.5996,258.5114,0.00013408,1.847e-05,0.0,0 STARLINK-3717,1 52096U 22029J   23062.21125191  .00001847  00000-0  13408-3 0  9991,2 52096  53.2183 348.3394 0001051 101.5996 258.5114 15.08835849 54341,6917.893,95.438,540.485,539.031,0.0
52096.0,STARLINK-3717,PAYLOAD,2023-03-03 19:22:40,15.08853896,0.0001145,53.2175,345.6645,81.592,278.5202,-0.00016173,-2.862e-05,0.0,0 STARLINK-3717,1 52096U 22029J   23062.80741087 -.00002862  00000-0 -16173-3 0  9996,2 52096  53.2175 345.6645 0001145  81.5920 278.5202 15.08853896 54431,6917.838,95.437,540.495,538.911,0.0
52096.0,STARLINK-3717,PAYLOAD,2023-03-04 03:19:33,15.08884446,9.53e-05,53.2184,344.1776,86.3406,273.7695,0.00010032,1.311e-05,0.0,0 STARLINK-3717,1 52096U 22029J   23063.13857643  .00001311  00000-0  10032-3 0  9993,2 52096  53.2184 344.1776 0000953  86.3406 273.7695 15.08884446 54481,6917.745,95.435,540.269,538.95,0.0
52096.0,STARLINK-3717,PAYLOAD,2023-03-05 01:34:59,15.0883719,0.0001695,53.2186,340.0163,77.6991,282.4191,-3.8569e-08,-2.89e-06,0.0,0 STARLINK-3717,1 52096U 22029J   23064.06596928 -.00000289  00000-0 -38569-7 0  9996,2 52096  53.2186 340.0163 0001695  77.6991 282.4191 15.08837190 54622,6917.889,95.438,540.927,538.581,0.0
52096.0,STARLINK-3717,PAYLOAD,2023-03-05 22:15:01,15.08840422,0.000121,53.2173,336.1479,41.0532,319.0551,-0.00019172,-3.338e-05,0.0,0 STARLINK-3717,1 52096U 22029J   23064.92709791 -.00003338  00000-0 -19172-3 0  9998,2 52096  53.2173 336.1479 0001210  41.0532 319.0551 15.08840422 54756,6917.879,95.438,540.581,538.907,0.0
52096.0,STARLINK-3717,PAYLOAD,2023-03-06 03:01:08,15.08864883,9.39e-05,53.2177,335.2558,77.3892,282.7206,1.4414e-05,-5.8e-07,0.0,0 STARLINK-3717,1 52096U 22029J   23065.12579267 -.00000058  00000-0  14414-4 0  9994,2 52096  53.2177 335.2558 0000939  77.3892 282.7206 15.08864883 54789,6917.804,95.436,540.319,539.02,0.0
52096.0,STARLINK-3717,PAYLOAD,2023-03-06 17:19:39,15.08820903,0.0001335,53.2176,332.5822,56.0063,304.1056,-6.2342e-06,-3.87e-06,0.0,0 STARLINK-3717,1 52096U 22029J   23065.72198482 -.00000387  00000-0 -62342-5 0  9996,2 52096  53.2176 332.5822 0001335  56.0063 304.1056 15.08820903 54874,6917.939,95.439,540.727,538.88,0.0
52096.0,STARLINK-3717,PAYLOAD,2023-03-07 04:27:19,15.08849465,0.0001365,53.2171,330.5004,66.3442,293.7693,0.00024032,3.54e-05,0.0,0 STARLINK-3717,1 52096U 22029J   23066.18564010  .00003540  00000-0  24032-3 0  9995,2 52096  53.2171 330.5004 0001365  66.3442 293.7693 15.08849465 54949,6917.851,95.437,540.661,538.772,0.0
52096.0,STARLINK-3717,PAYLOAD,2023-03-07 17:10:26,15.088423,0.0001033,53.2176,328.1191,96.9039,263.2071,-0.00013421,-2.423e-05,0.0,0 STARLINK-3717,1 52096U 22029J   23066.71558205 -.00002423  00000-0 -13421-3 0  9994,2 52096  53.2176 328.1191 0001033  96.9039 263.2071 15.08842300 55020,6917.873,95.437,540.453,539.024,0.0
52096.0,STARLINK-3717,PAYLOAD,2023-03-08 02:42:43,15.08862711,0.0001514,53.2168,326.3355,93.2821,266.8345,4.1237e-05,3.69e-06,0.0,0 STARLINK-3717,1 52096U 22029J   23067.11300067  .00000369  00000-0  41237-4 0  9992,2 52096  53.2168 326.3355 0001514  93.2821 266.8345 15.08862711 55083,6917.811,95.436,540.723,538.629,0.0
52096.0,STARLINK-3717,PAYLOAD,2023-03-08 17:01:13,15.0883126,0.00024,53.2136,323.6599,78.4406,281.6856,-6.1541e-05,-1.267e-05,0.0,0 STARLINK-3717,1 52096U 22029J   23067.70918967 -.00001267  00000-0 -61541-4 0  9991,2 52096  53.2136 323.6599 0002400  78.4406 281.6856 15.08831260 55174,6917.907,95.438,541.432,538.112,0.0
52096.0,STARLINK-3717,PAYLOAD,2023-03-09 21:38:08,15.0886402,0.0001521,53.2151,318.3069,81.8654,278.251,0.00010359,1.362e-05,0.0,0 STARLINK-3717,1 52096U 22029J   23068.90148486  .00001362  00000-0  10359-3 0  9999,2 52096  53.2151 318.3069 0001521  81.8654 278.2510 15.08864020 55359,6917.807,95.436,540.724,538.62,0.0
52096.0,STARLINK-3717,PAYLOAD,2023-03-09 23:13:31,15.08866802,0.0001454,53.2157,318.0093,85.3632,274.7526,0.00010955,1.457e-05,0.0,0 STARLINK-3717,1 52096U 22029J   23068.96772214  .00001457  00000-0  10955-3 0  9994,2 52096  53.2157 318.0093 0001454  85.3632 274.7526 15.08866802 55368,6917.798,95.436,540.669,538.658,0.0
